INTELSAT 33E DEB        
1 61989U 16053F   26068.10640123 -.00000077  00000+0  00000+0 0  9990
2 61989   2.2905 114.2218 0380769 153.0646 209.3881  0.98020657  4866
INTELSAT 33E DEB        
1 61990U 16053G   26071.91837099 -.00000314  00000+0  00000+0 0  9999
2 61990   1.2203  75.0838 0139469 298.7222  60.7500  1.01396175  5174
INTELSAT 33E DEB        
1 61991U 16053H   26073.56249922 -.00000320  00000+0  00000+0 0  9992
2 61991   1.4282  94.2605 0123872 251.0865 108.3456  1.02044662  5222
INTELSAT 33E DEB        
1 61992U 16053J   26072.90889748 -.00000257  00000+0  00000+0 0  9995
2 61992   1.3159  85.2712 0055764 282.0773  78.1478  1.00796728  5155
INTELSAT 33E DEB        
1 61993U 16053K   26072.81896627 -.00000076  00000+0  00000+0 0  9999
2 61993   1.2290  75.2544 0099301 310.3552  49.7042  1.01198315  5170
INTELSAT 33E DEB        
1 61994U 16053L   26073.39476433 -.00000288  00000+0  00000+0 0  9998
2 61994   1.3417  86.9314 0025591 210.0935 150.6311  1.00496567  5145
INTELSAT 33E DEB        
1 61995U 16053M   26072.68151326  .00000116  00000+0  00000+0 0  9990
2 61995   1.2988  83.8628 0054295 280.9308  79.3083  1.01037104  5169
INTELSAT 33E DEB        
1 61996U 16053N   26072.84030793 -.00000258  00000+0  00000+0 0  9991
2 61996   1.1971  65.7848 0055992 321.5725  38.9977  1.00601872  5143
INTELSAT 33E DEB        
1 61997U 16053P   26072.75534360  .00000076  00000+0  00000+0 0  9998
2 61997   1.3269  87.0567 0106551 265.5068  94.0937  1.01609958  5194
INTELSAT 33E DEB        
1 61998U 16053Q   26072.86331455 -.00000238  00000+0  00000+0 0  9992
2 61998   1.3120  84.3059 0030387 271.8566  88.6548  1.00402116  5141
INTELSAT 33E DEB        
1 61999U 16053R   26072.75323441 -.00000186  00000+0  00000+0 0  9999
2 61999   1.2626  76.6343 0112303  32.5368 329.0586  0.99261244  5071
INTELSAT 33E DEB        
1 62000U 16053S   26067.28418139  .00000014  00000+0  00000+0 0  9993
2 62000   1.4465  94.8066 0138276 297.8611  61.5111  1.00155352  5073
INTELSAT 33E DEB        
1 62001U 16053T   26072.52574203  .00000028  00000+0  00000+0 0  9997
2 62001   1.1973  64.2083 0063664 335.6482  24.9964  1.00187097  5126
INTELSAT 33E DEB        
1 62003U 16053V   26072.80155351 -.00000053  00000+0  00000+0 0  9998
2 62003   1.3788  89.8392 0025066 249.8669 110.6531  1.00408930  5122
INTELSAT 33E DEB        
1 62004U 16053W   26072.63915229 -.00000296  00000+0  00000+0 0  9997
2 62004   2.3155 119.3043 0209750 266.9468  90.9722  1.02634765  5238
INTELSAT 33E DEB        
1 62005U 16053X   26072.67178260 -.00000157  00000+0  00000+0 0  9994
2 62005   1.5005  99.8026 0295762 240.8201 116.8317  1.04575857  5316
OPTUS-X (ADS-01)        
1 62006U 24212A   26073.59948891 -.00000144  00000+0  00000+0 0  9994
2 62006   0.0359 267.5719 0001035 112.6501 164.2301  1.00271826  4812
FALCON 9 R/B            
1 62007U 24212B   26072.82588025 -.00000601  00000+0 -26862-2 0  9995
2 62007  18.3416  93.0004 7800327  50.7200 355.8146  1.58895897  7602
GSAT-N2 (GSAT-20)       
1 62028U 24214A   26073.58198218 -.00000020  00000+0  00000+0 0  9992
2 62028   0.0612 261.6784 0000529 289.8069 258.2738  1.00269180  4940
TJS-13                  
1 62188U 24227A   26072.19548055  .00000500  00000+0  00000+0 0  9999
2 62188  63.7110  50.3587 7007121 269.4806  17.1450  2.00620330  9324
PROBA-3 CSC             
1 62256U 24233A   26073.29881027 -.00000086  00000+0 -16177-2 0  9999
2 62256  59.6309 105.4518 8014392 202.7693  77.0198  1.22074764  5667
PSLV R/B                
1 62257U 24233B   26072.91076975 -.00000223  00000+0 -31668-1 0  9990
2 62257  59.7229 106.3056 8031540 202.3629  77.8824  1.20447659  5586
PROBA-3 OSC             
1 62258U 24233C   26069.20364853 -.00000176  00000+0  31704-2 0  9992
2 62258  59.6148 105.7948 8014513 202.6494  77.3699  1.22080846  5604
SXM-9                   
1 62259U 24234A   26073.05240931 -.00000206  00000+0  00000+0 0  9998
2 62259   0.0099 213.4738 0003988  93.2336 158.6682  1.00271617  4629
TJS-12                  
1 62374U 24246A   26073.38356404 -.00000232  00000+0  00000+0 0  9997
2 62374   0.8886 292.1487 0002037  34.7052 129.7618  1.00272677  4617
NUVIEW ALPHA            
1 62455U 24252B   26073.55199538 -.00000215  00000+0  00000+0 0  9997
2 62455   0.0623  35.6769 0002291 318.6933 293.3971  1.00267531  2874
AGILA                   
1 62456U 24252C   26073.38469071 -.00000183  00000+0  00000+0 0  9995
2 62456   0.0291 142.2442 0001412 233.9022  86.4661  1.00270305  4200
NUVIEW BRAVO            
1 62457U 24252D   26073.48066840 -.00000216  00000+0  00000+0 0  9991
2 62457   0.0674 159.1141 0000420 225.5520 237.3513  1.00271603  2840
THURAYA-4               
1 62483U 25001A   26073.14938972  .00000139  00000+0  00000+0 0  9993
2 62483   0.0222 100.5076 0000259 341.5383 187.8027  1.00273406  3226
FALCON 9 R/B            
1 62484U 25001B   26072.99116669 -.00000292  00000+0 -10357-2 0  9998
2 62484  25.2635 229.5357 7894522 330.0830   1.9207  1.41762361  6158
SHIJIAN-25 (SJ-25)      
1 62485U 25002A   26073.81048770 -.00000347  00000+0  00000+0 0  9990
2 62485   4.8888  61.7072 0048698 166.3849   3.4189  1.00271904  4416
BREEZE-M DEB            
1 62722U 08003D   26070.14454167 -.00000001  00000+0  00000+0 0  9997
2 62722  11.2171  27.2158 0786511 184.1667 175.1990  1.01902260 11779
TJS-14                  
1 62804U 25017A   26073.57210213  .00000114  00000+0  00000+0 0  9998
2 62804   1.0050 290.4002 0002198  63.4374  42.6663  1.00274551  4323
NVS-02 (IRNSS-1K)       
1 62850U 25020A   26072.96552685  .00000463  00000+0  43176-3 0  9999
2 62850  20.8325 294.1913 7349783  86.0803 346.9008  2.17743218  8900
SPAINSAT NG I           
1 62852U 25021A   26071.79145724  .00000000  00000+0  00000+0 0  9996
2 62852   0.0234 152.1801 0000240 228.3192 103.8412  1.00273656  3029
FALCON 9 R/B            
1 62853U 25021B   26071.58221257 -.00000287  00000+0  14315-3 0  9996
2 62853  24.8834 275.2356 8262017 291.6167   4.3028  1.11101469  4514
QZS-6 (MICHIBIKI-6)     
1 62876U 25023A   26073.63149252  .00000000  00000+0  00000+0 0  9999
2 62876   0.0214 130.1240 0002224 232.7091 127.2280  1.00272179  4019
ZHONGXING-10R           
1 63075U 25036A   26073.63945165 -.00000353  00000+0  00000+0 0  9994
2 63075   0.0730 258.5881 0001118 288.8374 325.5425  1.00270839  4012
TJS-15                  
1 63157U 25045A   26073.81267860 -.00000266  00000+0  00000+0 0  9997
2 63157   0.2219  86.8733 0006819 271.9111 200.6049  1.00272213  3810
TIANLIAN 2-04           
1 63361U 25062A   26073.58432219 -.00000141  00000+0  00000+0 0  9991
2 63361   4.6194 275.7323 0034383  10.0103 176.8297  1.00271248  3659
TJS-16                  
1 63397U 25064A   26073.81241007 -.00000106  00000+0  00000+0 0  9992
2 63397   0.8530  81.8846 0005066 263.9411 279.6536  1.00272367  3441
TJS-17                  
1 63524U 25073A   26073.78990314 -.00000070  00000+0  00000+0 0  9992
2 63524   0.8184  83.4398 0004267 256.0552 281.7631  1.00272530  3340
TIANLIAN 2-05           
1 63662U 25084A   26069.15126194  .00000124  00000+0  00000+0 0  9999
2 63662   4.7029 280.9096 0003245  88.7631 232.9951  1.00273947  3386
TJS-19                  
1 63924U 25097A   26073.78599457 -.00000277  00000+0  00000+0 0  9994
2 63924   3.4487 315.9405 0002990 339.6746 300.9898  1.00272944  3196
CHINASAT 3B             
1 64062U 25106A   26069.39426096 -.00000044  00000+0  00000+0 0  9991
2 64062   0.0093 129.0859 0001804 208.7822 139.4034  1.00271116  3071
SXM-10                  
1 64290U 25122A   26073.11758292 -.00000017  00000+0  00000+0 0  9993
2 64290   0.0248  61.0767 0002735 312.4986  84.3190  1.00272093  2735
INTELSAT 33E DEB        
1 64394U 16053Y   26073.17345701 -.00000070  00000+0  00000+0 0  9993
2 64394   1.1635  38.7802 0628251 339.7453  18.5920  1.08356597  5419
INTELSAT 33E DEB        
1 64395U 16053Z   26072.94423421 -.00000265  00000+0  00000+0 0  9990
2 64395   2.1535 115.8330 0082322 211.6875 148.2043  0.99832624  4978
INTELSAT 33E DEB        
1 64396U 16053AA  26073.06415629  .00000007  00000+0  00000+0 0  9999
2 64396   1.3270  83.4904 0111118  57.7087 304.2425  0.98612893  5043
INTELSAT 33E DEB        
1 64397U 16053AB  26072.66869570  .00000062  00000+0  00000+0 0  9994
2 64397   1.2938  81.2042 0047017  90.9173 270.5035  0.99471731  4950
INTELSAT 33E DEB        
1 64398U 16053AC  26055.09246179  .00000021  00000+0  00000+0 0  9992
2 64398   1.1692  47.8448 0198390 317.0627  42.1986  1.00972481  4873
INTELSAT 33E DEB        
1 64399U 16053AD  26056.84607028 -.00000303  00000+0  00000+0 0  9995
2 64399   1.3084  58.8286 0520584 324.9740  32.3647  0.98863655  4727
INTELSAT 33E DEB        
1 64400U 16053AE  26072.88153400 -.00000114  00000+0  00000+0 0  9990
2 64400   1.2373  81.8583 0493788 308.0799  48.3955  1.03349638  5174
INTELSAT 33E DEB        
1 64401U 16053AF  26050.73892810 -.00000058  00000+0  00000+0 0  9993
2 64401   1.1047  72.8646 0700758 295.6650  58.1706  1.05810450  5065
INTELSAT 33E DEB        
1 64402U 16053AG  26073.36841617 -.00000295  00000+0  00000+0 0  9990
2 64402   1.2663  75.1540 0120742 102.2622 260.0848  0.98356075  4936
INTELSAT 33E DEB        
1 64403U 16053AH  26073.24739310  .00000004  00000+0  00000+0 0  9991
2 64403   1.1923  63.8428 0063466 336.0984  24.6068  1.00710569  5004
INTELSAT 33E DEB        
1 64404U 16053AJ  26073.56419673  .00000108  00000+0  00000+0 0  9999
2 64404   1.2028  57.7293 0107603  25.6705 335.8630  0.99867873  4962
INTELSAT 33E DEB        
1 64405U 16053AK  26073.55121295 -.00000032  00000+0  00000+0 0  9996
2 64405   1.4833  95.4281 0064909   9.9866 350.8953  0.99499125  4965
INTELSAT 33E DEB        
1 64406U 16053AL  26068.57760843  .00000048  00000+0  00000+0 0  9997
2 64406   1.2175  68.7190 0127600  43.8153 318.0736  0.98885533  4853
